KUIPER-00589            
1 69767U 26151E   26197.48634668  .00002813  00000+0  86126-4 0  9990
2 69767  51.8750 174.1407 0005401 146.7112 213.4215 15.37366483  2218
KUIPER-00598            
1 69768U 26151F   26197.30862517 -.00716870  00000+0 -23330-1 0  9990
2 69768  51.8664 175.1913 0017224 146.2210 213.9876 15.33661092  2180
KUIPER-00604            
1 69769U 26151G   26197.47870113  .00008806  00000+0  24006-3 0  9994
2 69769  51.8797 174.0877 0002703 110.2726 249.8551 15.38250655  2210
KUIPER-00609            
1 69770U 26151H   26197.53981409  .00012223  00000+0  32477-3 0  9993
2 69770  51.8803 173.7473 0001077  58.6162 301.4931 15.38657691  2229
KUIPER-00611            
1 69771U 26151J   26197.54169588  .00012996  00000+0  34673-3 0  9998
2 69771  51.8804 173.7561 0001612 107.3381 252.7783 15.38468737  2223
KUIPER-00612            
1 69772U 26151K   26197.54641883  .00012247  00000+0  33277-3 0  9990
2 69772  51.8792 173.7927 0003619 119.5701 240.5647 15.37960292  2222
KUIPER-00614            
1 69773U 26151L   26197.54446450  .00011692  00000+0  31610-3 0  9996
2 69773  51.8804 173.7764 0002680 126.8385 233.2848 15.38167261  2220
KUIPER-00615            
1 69774U 26151M   26197.42301051  .00008067  00000+0  22801-3 0  9995
2 69774  51.8769 174.4652 0006128 152.0623 208.0693 15.37238610  2204
KUIPER-00616            
1 69775U 26151N   26197.54289814  .00012849  00000+0  34354-3 0  9990
2 69775  51.8784 173.7710 0003089 126.8965 233.2306 15.38413416  2223
KUIPER-00617            
1 69776U 26151P   26197.48265685  .00011194  00000+0  30667-3 0  9999
2 69776  51.8795 174.1139 0004034 140.8794 219.2485 15.37799024  2215
KUIPER-00619            
1 69777U 26151Q   26197.54072632  .00012421  00000+0  33088-3 0  9999
2 69777  51.8801 173.7524 0001798  67.9903 292.1275 15.38561412  2229
KUIPER-00621            
1 69778U 26151R   26197.54281957  .00012306  00000+0  33015-3 0  9994
2 69778  51.8794 173.7694 0001996 116.2910 243.8282 15.38351143  2224
KUIPER-00622            
1 69779U 26151S   26197.48995135  .00008138  00000+0  23166-3 0  9992
2 69779  51.8730 174.1633 0006728 152.5718 207.5625 15.37000023  2214
KUIPER-00623            
1 69780U 26151T   26197.55056480  .00029116  00000+0  78736-3 0  9995
2 69780  51.8776 173.8214 0005419 145.6105 214.5234 15.37467237  2225
KUIPER-00626            
1 69781U 26151U   26197.43550122 -.00018917  00000+0 -53145-3 0  9991
2 69781  51.8714 174.5445 0009111 167.6552 192.4658 15.35389673  2202
KUIPER-00627            
1 69782U 26151V   26197.56748262 -.00004859  00000+0 -12803-3 0  9996
2 69782  51.8690 173.9269 0010883 169.8622 190.2585 15.35360388  2222
