{"fetched_at":"2026-07-17T06:37:49.595Z","source":"https://celestrak.org/NORAD/elements/gp.php?GROUP=kuiper&FORMAT=JSON","constellation":"kuiper","records":[{"OBJECT_NAME":"KUIPER-00589","OBJECT_ID":"2026-151E","EPOCH":"2026-07-16T11:40:20.353152","CLASSIFICATION_TYPE":"U","MEAN_MOTION":15.37366483,"ECCENTRICITY":0.0005401,"INCLINATION":51.875,"RA_OF_ASC_NODE":174.1407,"ARG_OF_PERICENTER":146.7112,"MEAN_ANOMALY":213.4215,"EPHEMERIS_TYPE":0,"NORAD_CAT_ID":69767,"ELEMENT_SET_NO":999,"REV_AT_EPOCH":221,"BSTAR":0.000086126,"MEAN_MOTION_DOT":0.00002813,"MEAN_MOTION_DDOT":0},{"OBJECT_NAME":"KUIPER-00598","OBJECT_ID":"2026-151F","EPOCH":"2026-07-16T07:24:25.214688","CLASSIFICATION_TYPE":"U","MEAN_MOTION":15.33661092,"ECCENTRICITY":0.0017224,"INCLINATION":51.8664,"RA_OF_ASC_NODE":175.1913,"ARG_OF_PERICENTER":146.221,"MEAN_ANOMALY":213.9876,"EPHEMERIS_TYPE":0,"NORAD_CAT_ID":69768,"ELEMENT_SET_NO":999,"REV_AT_EPOCH":218,"BSTAR":-0.02333,"MEAN_MOTION_DOT":-0.0071687,"MEAN_MOTION_DDOT":0},{"OBJECT_NAME":"KUIPER-00604","OBJECT_ID":"2026-151G","EPOCH":"2026-07-16T11:29:19.777632","CLASSIFICATION_TYPE":"U","MEAN_MOTION":15.38250655,"ECCENTRICITY":0.0002703,"INCLINATION":51.8797,"RA_OF_ASC_NODE":174.0877,"ARG_OF_PERICENTER":110.2726,"MEAN_ANOMALY":249.8551,"EPHEMERIS_TYPE":0,"NORAD_CAT_ID":69769,"ELEMENT_SET_NO":999,"REV_AT_EPOCH":221,"BSTAR":0.00024006,"MEAN_MOTION_DOT":0.00008806,"MEAN_MOTION_DDOT":0},{"OBJECT_NAME":"KUIPER-00609","OBJECT_ID":"2026-151H","EPOCH":"2026-07-16T12:57:19.937376","CLASSIFICATION_TYPE":"U","MEAN_MOTION":15.38657691,"ECCENTRICITY":0.0001077,"INCLINATION":51.8803,"RA_OF_ASC_NODE":173.7473,"ARG_OF_PERICENTER":58.6162,"MEAN_ANOMALY":301.4931,"EPHEMERIS_TYPE":0,"NORAD_CAT_ID":69770,"ELEMENT_SET_NO":999,"REV_AT_EPOCH":222,"BSTAR":0.00032477,"MEAN_MOTION_DOT":0.00012223,"MEAN_MOTION_DDOT":0},{"OBJECT_NAME":"KUIPER-00611","OBJECT_ID":"2026-151J","EPOCH":"2026-07-16T13:00:02.524032","CLASSIFICATION_TYPE":"U","MEAN_MOTION":15.38468737,"ECCENTRICITY":0.0001612,"INCLINATION":51.8804,"RA_OF_ASC_NODE":173.7561,"ARG_OF_PERICENTER":107.3381,"MEAN_ANOMALY":252.7783,"EPHEMERIS_TYPE":0,"NORAD_CAT_ID":69771,"ELEMENT_SET_NO":999,"REV_AT_EPOCH":222,"BSTAR":0.00034673,"MEAN_MOTION_DOT":0.00012996,"MEAN_MOTION_DDOT":0},{"OBJECT_NAME":"KUIPER-00612","OBJECT_ID":"2026-151K","EPOCH":"2026-07-16T13:06:50.586912","CLASSIFICATION_TYPE":"U","MEAN_MOTION":15.37960292,"ECCENTRICITY":0.0003619,"INCLINATION":51.8792,"RA_OF_ASC_NODE":173.7927,"ARG_OF_PERICENTER":119.5701,"MEAN_ANOMALY":240.5647,"EPHEMERIS_TYPE":0,"NORAD_CAT_ID":69772,"ELEMENT_SET_NO":999,"REV_AT_EPOCH":222,"BSTAR":0.00033277,"MEAN_MOTION_DOT":0.00012247,"MEAN_MOTION_DDOT":0},{"OBJECT_NAME":"KUIPER-00614","OBJECT_ID":"2026-151L","EPOCH":"2026-07-16T13:04:01.732800","CLASSIFICATION_TYPE":"U","MEAN_MOTION":15.38167261,"ECCENTRICITY":0.000268,"INCLINATION":51.8804,"RA_OF_ASC_NODE":173.7764,"ARG_OF_PERICENTER":126.8385,"MEAN_ANOMALY":233.2848,"EPHEMERIS_TYPE":0,"NORAD_CAT_ID":69773,"ELEMENT_SET_NO":999,"REV_AT_EPOCH":222,"BSTAR":0.0003161,"MEAN_MOTION_DOT":0.00011692,"MEAN_MOTION_DDOT":0},{"OBJECT_NAME":"KUIPER-00615","OBJECT_ID":"2026-151M","EPOCH":"2026-07-16T10:09:08.108064","CLASSIFICATION_TYPE":"U","MEAN_MOTION":15.3723861,"ECCENTRICITY":0.0006128,"INCLINATION":51.8769,"RA_OF_ASC_NODE":174.4652,"ARG_OF_PERICENTER":152.0623,"MEAN_ANOMALY":208.0693,"EPHEMERIS_TYPE":0,"NORAD_CAT_ID":69774,"ELEMENT_SET_NO":999,"REV_AT_EPOCH":220,"BSTAR":0.00022801,"MEAN_MOTION_DOT":0.00008067,"MEAN_MOTION_DDOT":0},{"OBJECT_NAME":"KUIPER-00616","OBJECT_ID":"2026-151N","EPOCH":"2026-07-16T13:01:46.399296","CLASSIFICATION_TYPE":"U","MEAN_MOTION":15.38413416,"ECCENTRICITY":0.0003089,"INCLINATION":51.8784,"RA_OF_ASC_NODE":173.771,"ARG_OF_PERICENTER":126.8965,"MEAN_ANOMALY":233.2306,"EPHEMERIS_TYPE":0,"NORAD_CAT_ID":69775,"ELEMENT_SET_NO":999,"REV_AT_EPOCH":222,"BSTAR":0.00034354,"MEAN_MOTION_DOT":0.00012849,"MEAN_MOTION_DDOT":0},{"OBJECT_NAME":"KUIPER-00617","OBJECT_ID":"2026-151P","EPOCH":"2026-07-16T11:35:01.551840","CLASSIFICATION_TYPE":"U","MEAN_MOTION":15.37799024,"ECCENTRICITY":0.0004034,"INCLINATION":51.8795,"RA_OF_ASC_NODE":174.1139,"ARG_OF_PERICENTER":140.8794,"MEAN_ANOMALY":219.2485,"EPHEMERIS_TYPE":0,"NORAD_CAT_ID":69776,"ELEMENT_SET_NO":999,"REV_AT_EPOCH":221,"BSTAR":0.00030667,"MEAN_MOTION_DOT":0.00011194,"MEAN_MOTION_DDOT":0},{"OBJECT_NAME":"KUIPER-00619","OBJECT_ID":"2026-151Q","EPOCH":"2026-07-16T12:58:38.754048","CLASSIFICATION_TYPE":"U","MEAN_MOTION":15.38561412,"ECCENTRICITY":0.0001798,"INCLINATION":51.8801,"RA_OF_ASC_NODE":173.7524,"ARG_OF_PERICENTER":67.9903,"MEAN_ANOMALY":292.1275,"EPHEMERIS_TYPE":0,"NORAD_CAT_ID":69777,"ELEMENT_SET_NO":999,"REV_AT_EPOCH":222,"BSTAR":0.00033088,"MEAN_MOTION_DOT":0.00012421,"MEAN_MOTION_DDOT":0},{"OBJECT_NAME":"KUIPER-00621","OBJECT_ID":"2026-151R","EPOCH":"2026-07-16T13:01:39.610848","CLASSIFICATION_TYPE":"U","MEAN_MOTION":15.38351143,"ECCENTRICITY":0.0001996,"INCLINATION":51.8794,"RA_OF_ASC_NODE":173.7694,"ARG_OF_PERICENTER":116.291,"MEAN_ANOMALY":243.8282,"EPHEMERIS_TYPE":0,"NORAD_CAT_ID":69778,"ELEMENT_SET_NO":999,"REV_AT_EPOCH":222,"BSTAR":0.00033015,"MEAN_MOTION_DOT":0.00012306,"MEAN_MOTION_DDOT":0},{"OBJECT_NAME":"KUIPER-00622","OBJECT_ID":"2026-151S","EPOCH":"2026-07-16T11:45:31.796640","CLASSIFICATION_TYPE":"U","MEAN_MOTION":15.37000023,"ECCENTRICITY":0.0006728,"INCLINATION":51.873,"RA_OF_ASC_NODE":174.1633,"ARG_OF_PERICENTER":152.5718,"MEAN_ANOMALY":207.5625,"EPHEMERIS_TYPE":0,"NORAD_CAT_ID":69779,"ELEMENT_SET_NO":999,"REV_AT_EPOCH":221,"BSTAR":0.00023166,"MEAN_MOTION_DOT":0.00008138,"MEAN_MOTION_DDOT":0},{"OBJECT_NAME":"KUIPER-00623","OBJECT_ID":"2026-151T","EPOCH":"2026-07-16T13:12:48.798720","CLASSIFICATION_TYPE":"U","MEAN_MOTION":15.37467237,"ECCENTRICITY":0.0005419,"INCLINATION":51.8776,"RA_OF_ASC_NODE":173.8214,"ARG_OF_PERICENTER":145.6105,"MEAN_ANOMALY":214.5234,"EPHEMERIS_TYPE":0,"NORAD_CAT_ID":69780,"ELEMENT_SET_NO":999,"REV_AT_EPOCH":222,"BSTAR":0.00078736,"MEAN_MOTION_DOT":0.00029116,"MEAN_MOTION_DDOT":0},{"OBJECT_NAME":"KUIPER-00626","OBJECT_ID":"2026-151U","EPOCH":"2026-07-16T10:27:07.305408","CLASSIFICATION_TYPE":"U","MEAN_MOTION":15.35389673,"ECCENTRICITY":0.0009111,"INCLINATION":51.8714,"RA_OF_ASC_NODE":174.5445,"ARG_OF_PERICENTER":167.6552,"MEAN_ANOMALY":192.4658,"EPHEMERIS_TYPE":0,"NORAD_CAT_ID":69781,"ELEMENT_SET_NO":999,"REV_AT_EPOCH":220,"BSTAR":-0.00053145,"MEAN_MOTION_DOT":-0.00018917,"MEAN_MOTION_DDOT":0},{"OBJECT_NAME":"KUIPER-00627","OBJECT_ID":"2026-151V","EPOCH":"2026-07-16T13:37:10.498368","CLASSIFICATION_TYPE":"U","MEAN_MOTION":15.35360388,"ECCENTRICITY":0.0010883,"INCLINATION":51.869,"RA_OF_ASC_NODE":173.9269,"ARG_OF_PERICENTER":169.8622,"MEAN_ANOMALY":190.2585,"EPHEMERIS_TYPE":0,"NORAD_CAT_ID":69782,"ELEMENT_SET_NO":999,"REV_AT_EPOCH":222,"BSTAR":-0.00012803,"MEAN_MOTION_DOT":-0.00004859,"MEAN_MOTION_DDOT":0}]}
